ORBCOMM FM112 [+]       
1 41184U 15081F   17345.84859409 -.00000154  00000-0  26644-5 0  9998
2 41184  46.9980 140.1993 0002623 121.3014 238.8127 14.54514411105960
